start=new Date('2022-08-26T00:00:00.000Z').valueOf();
sats=[{"MEAN_ANOMALY":"13.4549","OBJECT_ID":"2022-029BE","CLASSIFICATION_TYPE":"U","MEAN_MOTION_DDOT":"0.0000000000000","RCS_SIZE":"LARGE","BSTAR":"-0.00099663000000","MEAN_MOTION_DOT":"-0.00016115","EPHEMERIS_TYPE":"0","LAUNCH_DATE":"2022-03-19","SITE":"AFETR","PERIAPSIS":"538.560","ECCENTRICITY":"0.00017030","APOAPSIS":"540.917","DECAY_DATE":null,"OBJECT_NAME":"STARLINK-3682","MEAN_ELEMENT_THEORY":"SGP4","PERIOD":"95.437","NORAD_CAT_ID":"52140","ELEMENT_SET_NO":"999","COUNTRY_CODE":"US","OBJECT_TYPE":"PAYLOAD","TIME_SYSTEM":"UTC","CENTER_NAME":"EARTH","ARG_OF_PERICENTER":"67.9560","EPOCH":"2022-08-25T22:00:00.999936","MEAN_MOTION":"15.08842249","SEMIMAJOR_AXIS":"6917.874","REF_FRAME":"TEME","INCLINATION":"53.2170","RA_OF_ASC_NODE":"108.1042","TLE_LINE1":"1 52140U 22029BE  22237.91667824 -.00016115  00000-0 -99663-3 0  9998","GP_ID":"211008861","FILE":"3547674","REV_AT_EPOCH":"130","TLE_LINE2":"2 52140  53.2170 108.1042 0001703  67.9560  13.4549 15.08842249  1305"},{"PERIAPSIS":"537.857","SITE":"AFETR","LAUNCH_DATE":"2022-04-21","DECAY_DATE":null,"APOAPSIS":"541.499","ECCENTRICITY":"0.00026320","MEAN_ELEMENT_THEORY":"SGP4","OBJECT_NAME":"STARLINK-3810","NORAD_CAT_ID":"52261","PERIOD":"95.436","OBJECT_ID":"2022-041A","MEAN_ANOMALY":"41.1814","CLASSIFICATION_TYPE":"U","RCS_SIZE":"LARGE","MEAN_MOTION_DDOT":"0.0000000000000","EPHEMERIS_TYPE":"0","BSTAR":"-0.00184190000000","MEAN_MOTION_DOT":"-0.00029502","TLE_LINE1":"1 52261U 22041A   22237.91667824 -.00029502  00000-0 -18419-2 0  9999","INCLINATION":"53.2170","RA_OF_ASC_NODE":"148.1084","REF_FRAME":"TEME","FILE":"3547674","GP_ID":"211008126","TLE_LINE2":"2 52261  53.2170 148.1084 0002632  60.2002  41.1814 15.08862080  1306","REV_AT_EPOCH":"130","COUNTRY_CODE":"US","OBJECT_TYPE":"PAYLOAD","ELEMENT_SET_NO":"999","CENTER_NAME":"EARTH","TIME_SYSTEM":"UTC","MEAN_MOTION":"15.08862080","ARG_OF_PERICENTER":"60.2002","EPOCH":"2022-08-25T22:00:00.999936","SEMIMAJOR_AXIS":"6917.813"},{"GP_ID":"210978382","FILE":"3547406","REF_FRAME":"TEME","INCLINATION":"53.2163","RA_OF_ASC_NODE":"148.1069","TLE_LINE1":"1 52262U 22041B   22237.91667824 -.00029356  00000-0 -18327-2 0  9995","REV_AT_EPOCH":"2057","TLE_LINE2":"2 52262  53.2163 148.1069 0002400  58.4918  17.7013 15.08861158 20575","TIME_SYSTEM":"UTC","CENTER_NAME":"EARTH","ELEMENT_SET_NO":"999","COUNTRY_CODE":"US","OBJECT_TYPE":"PAYLOAD","SEMIMAJOR_AXIS":"6917.816","EPOCH":"2022-08-25T22:00:00.999936","ARG_OF_PERICENTER":"58.4918","MEAN_MOTION":"15.08861158","APOAPSIS":"541.341","ECCENTRICITY":"0.00024000","DECAY_DATE":null,"LAUNCH_DATE":"2022-04-21","SITE":"AFETR","PERIAPSIS":"538.020","PERIOD":"95.436","NORAD_CAT_ID":"52262","OBJECT_NAME":"STARLINK-3761","MEAN_ELEMENT_THEORY":"SGP4","CLASSIFICATION_TYPE":"U","MEAN_ANOMALY":"17.7013","OBJECT_ID":"2022-041B","BSTAR":"-0.00183270000000","MEAN_MOTION_DOT":"-0.00029356","EPHEMERIS_TYPE":"0","MEAN_MOTION_DDOT":"0.0000000000000","RCS_SIZE":"LARGE"},{"SEMIMAJOR_AXIS":"6917.839","EPOCH":"2022-08-25T22:00:00.999936","ARG_OF_PERICENTER":"55.9038","MEAN_MOTION":"15.08853562","TIME_SYSTEM":"UTC","CENTER_NAME":"EARTH","ELEMENT_SET_NO":"999","COUNTRY_CODE":"US","OBJECT_TYPE":"PAYLOAD","REV_AT_EPOCH":"130","TLE_LINE2":"2 52263  53.2170 148.1083 0002335  55.9038  25.5015 15.08853562  1301","FILE":"3547674","GP_ID":"211007133","REF_FRAME":"TEME","TLE_LINE1":"1 52263U 22041C   22237.91667824 -.00029387  00000-0 -18351-2 0  9997","RA_OF_ASC_NODE":"148.1083","INCLINATION":"53.2170","BSTAR":"-0.00183510000000","MEAN_MOTION_DOT":"-0.00029387","EPHEMERIS_TYPE":"0","MEAN_MOTION_DDOT":"0.0000000000000","RCS_SIZE":"LARGE","CLASSIFICATION_TYPE":"U","OBJECT_ID":"2022-041C","MEAN_ANOMALY":"25.5015","PERIOD":"95.437","NORAD_CAT_ID":"52263","OBJECT_NAME":"STARLINK-3786","MEAN_ELEMENT_THEORY":"SGP4","DECAY_DATE":null,"ECCENTRICITY":"0.00023350","APOAPSIS":"541.319","LAUNCH_DATE":"2022-04-21","SITE":"AFETR","PERIAPSIS":"538.089"},{"FILE":"3547674","GP_ID":"211008382","TLE_LINE1":"1 52264U 22041D   22237.91667824 -.00045283  00000-0 -28421-2 0  9990","RA_OF_ASC_NODE":"148.1094","INCLINATION":"53.2169","REF_FRAME":"TEME","TLE_LINE2":"2 52264  53.2169 148.1094 0002519  64.6368  56.7383 15.08875432  1303","REV_AT_EPOCH":"130","CENTER_NAME":"EARTH","TIME_SYSTEM":"UTC","COUNTRY_CODE":"US","OBJECT_TYPE":"PAYLOAD","ELEMENT_SET_NO":"999","SEMIMAJOR_AXIS":"6917.772","MEAN_MOTION":"15.08875432","EPOCH":"2022-08-25T22:00:00.999936","ARG_OF_PERICENTER":"64.6368","DECAY_DATE":null,"APOAPSIS":"541.380","ECCENTRICITY":"0.00025190","SITE":"AFETR","PERIAPSIS":"537.895","LAUNCH_DATE":"2022-04-21","NORAD_CAT_ID":"52264","PERIOD":"95.435","MEAN_ELEMENT_THEORY":"SGP4","OBJECT_NAME":"STARLINK-3795","CLASSIFICATION_TYPE":"U","OBJECT_ID":"2022-041D","MEAN_ANOMALY":"56.7383","EPHEMERIS_TYPE":"0","MEAN_MOTION_DOT":"-0.00045283","BSTAR":"-0.00284210000000","RCS_SIZE":"LARGE","MEAN_MOTION_DDOT":"0.0000000000000"},{"NORAD_CAT_ID":"52265","PERIOD":"95.437","MEAN_ELEMENT_THEORY":"SGP4","OBJECT_NAME":"STARLINK-3740","DECAY_DATE":null,"APOAPSIS":"541.353","ECCENTRICITY":"0.00023580","PERIAPSIS":"538.091","SITE":"AFETR","LAUNCH_DATE":"2022-04-21","EPHEMERIS_TYPE":"0","BSTAR":"-0.00250990000000","MEAN_MOTION_DOT":"-0.00040022","RCS_SIZE":"LARGE","MEAN_MOTION_DDOT":"0.0000000000000","CLASSIFICATION_TYPE":"U","OBJECT_ID":"2022-041E","MEAN_ANOMALY":"75.5273","TLE_LINE2":"2 52265  53.2165 148.1072 0002358  65.9056  75.5273 15.08847701  1300","REV_AT_EPOCH":"130","FILE":"3547674","GP_ID":"211008627","TLE_LINE1":"1 52265U 22041E   22237.91667824 -.00040022  00000-0 -25099-2 0  9995","INCLINATION":"53.2165","RA_OF_ASC_NODE":"148.1072","REF_FRAME":"TEME","SEMIMAJOR_AXIS":"6917.857","MEAN_MOTION":"15.08847701","ARG_OF_PERICENTER":"65.9056","EPOCH":"2022-08-25T22:00:00.999936","CENTER_NAME":"EARTH","TIME_SYSTEM":"UTC","OBJECT_TYPE":"PAYLOAD","COUNTRY_CODE":"US","ELEMENT_SET_NO":"999"},{"REV_AT_EPOCH":"130","TLE_LINE2":"2 52266  53.2163 148.1077 0002351  63.0247  98.3545 15.08863422  1301","REF_FRAME":"TEME","TLE_LINE1":"1 52266U 22041F   22237.91667824 -.00027030  00000-0 -16854-2 0  9999","RA_OF_ASC_NODE":"148.1077","INCLINATION":"53.2163","FILE":"3547674","GP_ID":"211008873","EPOCH":"2022-08-25T22:00:00.999936","ARG_OF_PERICENTER":"63.0247","MEAN_MOTION":"15.08863422","SEMIMAJOR_AXIS":"6917.809","ELEMENT_SET_NO":"999","COUNTRY_CODE":"US","OBJECT_TYPE":"PAYLOAD","TIME_SYSTEM":"UTC","CENTER_NAME":"EARTH","OBJECT_NAME":"STARLINK-3739","MEAN_ELEMENT_THEORY":"SGP4","PERIOD":"95.436","NORAD_CAT_ID":"52266","LAUNCH_DATE":"2022-04-21","PERIAPSIS":"538.047","SITE":"AFETR","DECAY_DATE":null,"ECCENTRICITY":"0.00023510","APOAPSIS":"541.300","MEAN_MOTION_DDOT":"0.0000000000000","RCS_SIZE":"LARGE","MEAN_MOTION_DOT":"-0.00027030","BSTAR":"-0.00168540000000","EPHEMERIS_TYPE":"0","OBJECT_ID":"2022-041F","MEAN_ANOMALY":"98.3545","CLASSIFICATION_TYPE":"U"},{"TLE_LINE2":"2 52267  53.2159 148.1067 0002449  62.4945 118.9263 15.08855795  1302","REV_AT_EPOCH":"130","TLE_LINE1":"1 52267U 22041G   22237.91667824 -.00026047  00000-0 -16236-2 0  9991","INCLINATION":"53.2159","RA_OF_ASC_NODE":"148.1067","REF_FRAME":"TEME","FILE":"3547674","GP_ID":"211007634","MEAN_MOTION":"15.08855795","ARG_OF_PERICENTER":"62.4945","EPOCH":"2022-08-25T22:00:00.999936","SEMIMAJOR_AXIS":"6917.832","OBJECT_TYPE":"PAYLOAD","COUNTRY_CODE":"US","ELEMENT_SET_NO":"999","CENTER_NAME":"EARTH","TIME_SYSTEM":"UTC","MEAN_ELEMENT_THEORY":"SGP4","OBJECT_NAME":"STARLINK-3748","NORAD_CAT_ID":"52267","PERIOD":"95.437","SITE":"AFETR","PERIAPSIS":"538.003","LAUNCH_DATE":"2022-04-21","DECAY_DATE":null,"ECCENTRICITY":"0.00024490","APOAPSIS":"541.391","RCS_SIZE":"LARGE","MEAN_MOTION_DDOT":"0.0000000000000","EPHEMERIS_TYPE":"0","BSTAR":"-0.00162360000000","MEAN_MOTION_DOT":"-0.00026047","OBJECT_ID":"2022-041G","MEAN_ANOMALY":"118.9263","CLASSIFICATION_TYPE":"U"},{"CLASSIFICATION_TYPE":"U","OBJECT_ID":"2022-041H","MEAN_ANOMALY":"181.7889","MEAN_MOTION_DOT":"-0.00024997","BSTAR":"-0.00155720000000","EPHEMERIS_TYPE":"0","MEAN_MOTION_DDOT":"0.0000000000000","RCS_SIZE":"LARGE","DECAY_DATE":null,"ECCENTRICITY":"0.00021430","APOAPSIS":"541.179","LAUNCH_DATE":"2022-04-21","PERIAPSIS":"538.214","SITE":"AFETR","PERIOD":"95.437","NORAD_CAT_ID":"52268","OBJECT_NAME":"STARLINK-3746","MEAN_ELEMENT_THEORY":"SGP4","TIME_SYSTEM":"UTC","CENTER_NAME":"EARTH","ELEMENT_SET_NO":"999","OBJECT_TYPE":"PAYLOAD","COUNTRY_CODE":"US","SEMIMAJOR_AXIS":"6917.832","ARG_OF_PERICENTER":"59.5867","EPOCH":"2022-08-25T22:00:00.999936","MEAN_MOTION":"15.08855982","FILE":"3547406","GP_ID":"210978873","REF_FRAME":"TEME","TLE_LINE1":"1 52268U 22041H   22237.91667824 -.00024997  00000-0 -15572-2 0  9996","INCLINATION":"53.2174","RA_OF_ASC_NODE":"148.1087","REV_AT_EPOCH":"2057","TLE_LINE2":"2 52268  53.2174 148.1087 0002143  59.5867 181.7889 15.08855982 20573"},{"ELEMENT_SET_NO":"999","COUNTRY_CODE":"US","OBJECT_TYPE":"PAYLOAD","TIME_SYSTEM":"UTC","CENTER_NAME":"EARTH","ARG_OF_PERICENTER":"61.1228","EPOCH":"2022-08-25T22:00:00.999936","MEAN_MOTION":"15.08865733","SEMIMAJOR_AXIS":"6917.802","REF_FRAME":"TEME","TLE_LINE1":"1 52269U 22041J   22237.91667824 -.00059444  00000-0 -37452-2 0  9993","RA_OF_ASC_NODE":"148.1083","INCLINATION":"53.2173","FILE":"3547406","GP_ID":"210978371","REV_AT_EPOCH":"2057","TLE_LINE2":"2 52269  53.2173 148.1083 0001915  61.1228 140.2927 15.08865733 20573","OBJECT_ID":"2022-041J","MEAN_ANOMALY":"140.2927","CLASSIFICATION_TYPE":"U","MEAN_MOTION_DDOT":"0.0000000000000","RCS_SIZE":"LARGE","BSTAR":"-0.00374520000000","MEAN_MOTION_DOT":"-0.00059444","EPHEMERIS_TYPE":"0","LAUNCH_DATE":"2022-04-21","PERIAPSIS":"538.342","SITE":"AFETR","DECAY_DATE":null,"ECCENTRICITY":"0.00019150","APOAPSIS":"540.991","OBJECT_NAME":"STARLINK-3791","MEAN_ELEMENT_THEORY":"SGP4","PERIOD":"95.436","NORAD_CAT_ID":"52269"}];
